start=new Date('2022-02-02T00:00:00.000Z').valueOf();
sats=[{"EPOCH":"2022-02-01T21:36:24.014016","NORAD_CAT_ID":"45233","INCLINATION":"53.0544","TLE_LINE1":"1 45233U 20012BH  22032.90027794  .00001742  00000-0  13581-3 0  9994","LAUNCH_DATE":"2020-02-17","REV_AT_EPOCH":"10950","BSTAR":"0.00013581000000","TIME_SYSTEM":"UTC","APOAPSIS":"548.400","RCS_SIZE":"LARGE","MEAN_MOTION":"15.06406766","GP_ID":"195120937","CENTER_NAME":"EARTH","RA_OF_ASC_NODE":"265.9704","ELEMENT_SET_NO":"999","DECAY_DATE":null,"TLE_LINE2":"2 45233  53.0544 265.9704 0001743  71.0198 289.0980 15.06406766109506","OBJECT_ID":"2020-012BH","MEAN_MOTION_DDOT":"0.0000000000000","PERIOD":"95.592","MEAN_MOTION_DOT":"0.00001742","ARG_OF_PERICENTER":"71.0198","FILE":"3289675","COUNTRY_CODE":"US","MEAN_ELEMENT_THEORY":"SGP4","CLASSIFICATION_TYPE":"U","EPHEMERIS_TYPE":"0","OBJECT_TYPE":"PAYLOAD","ECCENTRICITY":"0.00017430","SITE":"AFETR","PERIAPSIS":"545.986","OBJECT_NAME":"STARLINK-1238","REF_FRAME":"TEME","SEMIMAJOR_AXIS":"6925.328","MEAN_ANOMALY":"289.0980"},{"MEAN_ANOMALY":"283.3245","SEMIMAJOR_AXIS":"6925.354","REF_FRAME":"TEME","OBJECT_NAME":"STARLINK-1243","PERIAPSIS":"546.013","SITE":"AFETR","ECCENTRICITY":"0.00017410","OBJECT_TYPE":"PAYLOAD","CLASSIFICATION_TYPE":"U","EPHEMERIS_TYPE":"0","MEAN_ELEMENT_THEORY":"SGP4","COUNTRY_CODE":"US","FILE":"3289675","ARG_OF_PERICENTER":"76.7938","PERIOD":"95.592","MEAN_MOTION_DDOT":"0.0000000000000","MEAN_MOTION_DOT":"-0.00000318","OBJECT_ID":"2020-012BJ","TLE_LINE2":"2 45234  53.0528 285.7815 0001741  76.7938 283.3245 15.06398273109216","DECAY_DATE":null,"ELEMENT_SET_NO":"999","RA_OF_ASC_NODE":"285.7815","GP_ID":"195121189","CENTER_NAME":"EARTH","RCS_SIZE":"LARGE","MEAN_MOTION":"15.06398273","APOAPSIS":"548.425","TIME_SYSTEM":"UTC","BSTAR":"-0.00000246400000","REV_AT_EPOCH":"10921","LAUNCH_DATE":"2020-02-17","TLE_LINE1":"1 45234U 20012BJ  22032.93898694 -.00000318  00000-0 -24640-5 0  9993","INCLINATION":"53.0528","NORAD_CAT_ID":"45234","EPOCH":"2022-02-01T22:32:08.471616"},{"MEAN_ANOMALY":"293.5608","SEMIMAJOR_AXIS":"6925.352","REF_FRAME":"TEME","OBJECT_NAME":"STARLINK-1246","PERIAPSIS":"546.020","SITE":"AFETR","ECCENTRICITY":"0.00017290","OBJECT_TYPE":"PAYLOAD","CLASSIFICATION_TYPE":"U","EPHEMERIS_TYPE":"0","MEAN_ELEMENT_THEORY":"SGP4","FILE":"3289675","COUNTRY_CODE":"US","MEAN_MOTION_DDOT":"0.0000000000000","PERIOD":"95.592","MEAN_MOTION_DOT":"-0.00000390","ARG_OF_PERICENTER":"66.5563","OBJECT_ID":"2020-012BK","DECAY_DATE":null,"TLE_LINE2":"2 45235  53.0538 285.8710 0001729  66.5563 293.5608 15.06398768109260","ELEMENT_SET_NO":"999","CENTER_NAME":"EARTH","GP_ID":"195121931","RA_OF_ASC_NODE":"285.8710","MEAN_MOTION":"15.06398768","RCS_SIZE":"LARGE","TIME_SYSTEM":"UTC","APOAPSIS":"548.415","BSTAR":"-0.00000730470000","REV_AT_EPOCH":"10926","LAUNCH_DATE":"2020-02-17","TLE_LINE1":"1 45235U 20012BK  22032.92424280 -.00000390  00000-0 -73047-5 0  9994","INCLINATION":"53.0538","NORAD_CAT_ID":"45235","EPOCH":"2022-02-01T22:10:54.577920"},{"NORAD_CAT_ID":"45236","EPOCH":"2022-02-01T20:08:52.857888","INCLINATION":"53.0516","LAUNCH_DATE":"2020-02-17","TLE_LINE1":"1 45236U 20012BL  22032.83950067  .00004893  00000-0  34712-3 0  9996","BSTAR":"0.00034712000000","REV_AT_EPOCH":"10885","MEAN_MOTION":"15.06404064","RCS_SIZE":"LARGE","APOAPSIS":"548.280","TIME_SYSTEM":"UTC","ELEMENT_SET_NO":"999","CENTER_NAME":"EARTH","GP_ID":"195098170","RA_OF_ASC_NODE":"246.2370","OBJECT_ID":"2020-012BL","TLE_LINE2":"2 45236  53.0516 246.2370 0001558  53.3746 306.7386 15.06404064108858","DECAY_DATE":null,"COUNTRY_CODE":"US","FILE":"3289526","MEAN_MOTION_DOT":"0.00004893","PERIOD":"95.592","MEAN_MOTION_DDOT":"0.0000000000000","ARG_OF_PERICENTER":"53.3746","MEAN_ELEMENT_THEORY":"SGP4","OBJECT_TYPE":"PAYLOAD","ECCENTRICITY":"0.00015580","CLASSIFICATION_TYPE":"U","EPHEMERIS_TYPE":"0","PERIAPSIS":"546.122","SITE":"AFETR","REF_FRAME":"TEME","OBJECT_NAME":"STARLINK-1247","MEAN_ANOMALY":"306.7386","SEMIMAJOR_AXIS":"6925.336"},{"MEAN_ANOMALY":"290.1830","SEMIMAJOR_AXIS":"6925.331","REF_FRAME":"TEME","OBJECT_NAME":"STARLINK-1270","PERIAPSIS":"545.973","SITE":"AFETR","OBJECT_TYPE":"PAYLOAD","ECCENTRICITY":"0.00017660","EPHEMERIS_TYPE":"0","CLASSIFICATION_TYPE":"U","MEAN_ELEMENT_THEORY":"SGP4","COUNTRY_CODE":"US","FILE":"3289675","PERIOD":"95.592","MEAN_MOTION_DDOT":"0.0000000000000","ARG_OF_PERICENTER":"69.9349","MEAN_MOTION_DOT":"0.00000807","OBJECT_ID":"2020-012BM","TLE_LINE2":"2 45237  53.0545 246.1558 0001766  69.9349 290.1830 15.06405845109793","DECAY_DATE":null,"ELEMENT_SET_NO":"999","GP_ID":"195120438","CENTER_NAME":"EARTH","RA_OF_ASC_NODE":"246.1558","MEAN_MOTION":"15.06405845","RCS_SIZE":"LARGE","APOAPSIS":"548.419","TIME_SYSTEM":"UTC","BSTAR":"0.00007309100000","REV_AT_EPOCH":"10979","LAUNCH_DATE":"2020-02-17","TLE_LINE1":"1 45237U 20012BM  22032.86158248  .00000807  00000-0  73091-4 0  9996","INCLINATION":"53.0545","NORAD_CAT_ID":"45237","EPOCH":"2022-02-01T20:40:40.726272"},{"SEMIMAJOR_AXIS":"6925.318","MEAN_ANOMALY":"294.3483","OBJECT_NAME":"STARLINK-1279","REF_FRAME":"TEME","SITE":"AFETR","PERIAPSIS":"545.929","CLASSIFICATION_TYPE":"U","EPHEMERIS_TYPE":"0","OBJECT_TYPE":"PAYLOAD","ECCENTRICITY":"0.00018100","MEAN_ELEMENT_THEORY":"SGP4","ARG_OF_PERICENTER":"65.7695","PERIOD":"95.591","MEAN_MOTION_DDOT":"0.0000000000000","MEAN_MOTION_DOT":"0.00005786","COUNTRY_CODE":"US","FILE":"3289675","TLE_LINE2":"2 45360  53.0549  16.9216 0001810  65.7695 294.3483 15.06410100104500","DECAY_DATE":null,"OBJECT_ID":"2020-019A","RA_OF_ASC_NODE":"16.9216","GP_ID":"195121203","CENTER_NAME":"EARTH","ELEMENT_SET_NO":"999","APOAPSIS":"548.436","TIME_SYSTEM":"UTC","MEAN_MOTION":"15.06410100","RCS_SIZE":"LARGE","REV_AT_EPOCH":"10450","BSTAR":"0.00040689000000","TLE_LINE1":"1 45360U 20019A   22032.68741720  .00005786  00000-0  40689-3 0  9990","LAUNCH_DATE":"2020-03-18","INCLINATION":"53.0549","EPOCH":"2022-02-01T16:29:52.846080","NORAD_CAT_ID":"45360"},{"BSTAR":"0.00001132300000","REV_AT_EPOCH":"10437","MEAN_MOTION":"15.06403325","RCS_SIZE":"LARGE","TIME_SYSTEM":"UTC","APOAPSIS":"548.196","ELEMENT_SET_NO":"999","GP_ID":"195121945","CENTER_NAME":"EARTH","RA_OF_ASC_NODE":"26.9761","NORAD_CAT_ID":"45361","EPOCH":"2022-02-01T16:12:38.267424","INCLINATION":"53.0557","LAUNCH_DATE":"2020-03-18","TLE_LINE1":"1 45361U 20019B   22032.67544291 -.00000113  00000-0  11323-4 0  9998","PERIAPSIS":"546.210","SITE":"AFETR","REF_FRAME":"TEME","OBJECT_NAME":"STARLINK-1301","MEAN_ANOMALY":"287.9242","SEMIMAJOR_AXIS":"6925.338","OBJECT_ID":"2020-019B","TLE_LINE2":"2 45361  53.0557  26.9761 0001434  72.1903 287.9242 15.06403325104379","DECAY_DATE":null,"COUNTRY_CODE":"US","FILE":"3289675","MEAN_MOTION_DDOT":"0.0000000000000","PERIOD":"95.592","MEAN_MOTION_DOT":"-0.00000113","ARG_OF_PERICENTER":"72.1903","MEAN_ELEMENT_THEORY":"SGP4","OBJECT_TYPE":"PAYLOAD","ECCENTRICITY":"0.00014340","EPHEMERIS_TYPE":"0","CLASSIFICATION_TYPE":"U"},{"OBJECT_NAME":"STARLINK-1306","REF_FRAME":"TEME","SEMIMAJOR_AXIS":"6925.351","MEAN_ANOMALY":"291.7992","SITE":"AFETR","PERIAPSIS":"546.128","MEAN_ELEMENT_THEORY":"SGP4","EPHEMERIS_TYPE":"0","CLASSIFICATION_TYPE":"U","OBJECT_TYPE":"PAYLOAD","ECCENTRICITY":"0.00015720","DECAY_DATE":null,"TLE_LINE2":"2 45362  53.0559  46.7674 0001572  68.3165 291.7992 15.06399064104093","OBJECT_ID":"2020-019C","PERIOD":"95.592","ARG_OF_PERICENTER":"68.3165","MEAN_MOTION_DDOT":"0.0000000000000","MEAN_MOTION_DOT":"-0.00000405","FILE":"3289675","COUNTRY_CODE":"US","TIME_SYSTEM":"UTC","APOAPSIS":"548.305","RCS_SIZE":"LARGE","MEAN_MOTION":"15.06399064","CENTER_NAME":"EARTH","GP_ID":"195120202","RA_OF_ASC_NODE":"46.7674","ELEMENT_SET_NO":"999","REV_AT_EPOCH":"10409","BSTAR":"-0.00000826070000","TLE_LINE1":"1 45362U 20019C   22032.72151765 -.00000405  00000-0 -82607-5 0  9994","LAUNCH_DATE":"2020-03-18","EPOCH":"2022-02-01T17:18:59.124960","NORAD_CAT_ID":"45362","INCLINATION":"53.0559"},{"OBJECT_NAME":"STARLINK-1313","REF_FRAME":"TEME","SEMIMAJOR_AXIS":"6925.293","MEAN_ANOMALY":"296.6745","SITE":"AFETR","PERIAPSIS":"545.886","MEAN_ELEMENT_THEORY":"SGP4","EPHEMERIS_TYPE":"0","CLASSIFICATION_TYPE":"U","OBJECT_TYPE":"PAYLOAD","ECCENTRICITY":"0.00018370","DECAY_DATE":null,"TLE_LINE2":"2 45364  53.0551  16.9432 0001837  63.4432 296.6745 15.06418034104500","OBJECT_ID":"2020-019E","MEAN_MOTION_DDOT":"0.0000000000000","PERIOD":"95.591","MEAN_MOTION_DOT":"0.00003865","ARG_OF_PERICENTER":"63.4432","FILE":"3289675","COUNTRY_CODE":"US","TIME_SYSTEM":"UTC","APOAPSIS":"548.430","MEAN_MOTION":"15.06418034","RCS_SIZE":"LARGE","RA_OF_ASC_NODE":"16.9432","GP_ID":"195120452","CENTER_NAME":"EARTH","ELEMENT_SET_NO":"999","REV_AT_EPOCH":"10450","BSTAR":"0.00027808000000","TLE_LINE1":"1 45364U 20019E   22032.68371916  .00003865  00000-0  27808-3 0  9994","LAUNCH_DATE":"2020-03-18","EPOCH":"2022-02-01T16:24:33.335424","NORAD_CAT_ID":"45364","INCLINATION":"53.0551"},{"TIME_SYSTEM":"UTC","APOAPSIS":"550.858","MEAN_MOTION":"15.05576234","RCS_SIZE":"LARGE","CENTER_NAME":"EARTH","GP_ID":"195121703","RA_OF_ASC_NODE":"26.9519","ELEMENT_SET_NO":"999","REV_AT_EPOCH":"10433","BSTAR":"-0.00001629800000","TLE_LINE1":"1 45365U 20019F   22032.68456007 -.00000517  00000-0 -16298-4 0  9995","LAUNCH_DATE":"2020-03-18","EPOCH":"2022-02-01T16:25:45.990048","NORAD_CAT_ID":"45365","INCLINATION":"53.0018","OBJECT_NAME":"STARLINK-1317","REF_FRAME":"TEME","SEMIMAJOR_AXIS":"6927.874","MEAN_ANOMALY":"291.8479","SITE":"AFETR","PERIAPSIS":"548.621","MEAN_ELEMENT_THEORY":"SGP4","CLASSIFICATION_TYPE":"U","EPHEMERIS_TYPE":"0","OBJECT_TYPE":"PAYLOAD","ECCENTRICITY":"0.00016150","TLE_LINE2":"2 45365  53.0018  26.9519 0001615  68.2681 291.8479 15.05576234104337","DECAY_DATE":null,"OBJECT_ID":"2020-019F","MEAN_MOTION_DOT":"-0.00000517","PERIOD":"95.644","MEAN_MOTION_DDOT":"0.0000000000000","ARG_OF_PERICENTER":"68.2681","COUNTRY_CODE":"US","FILE":"3289675"}];
